NORAD_CAT_ID,OBJECT_NAME,OBJECT_TYPE,EPOCH,MEAN_MOTION,ECCENTRICITY,INCLINATION,RA_OF_ASC_NODE,ARG_OF_PERICENTER,MEAN_ANOMALY,BSTAR,MEAN_MOTION_DOT,MEAN_MOTION_DDOT,TLE_LINE0,TLE_LINE1,TLE_LINE2,SEMIMAJOR_AXIS,PERIOD,APOGEE,PERIGEE,DECAYED
53438.0,STARLINK-4526,PAYLOAD,2022-09-06 14:00:01,15.73088573,0.0001013,53.2188,112.4758,95.8771,336.1967,0.00056378,0.00078869,0.0,0 STARLINK-4526,1 53438U 22097BC  22249.58334491  .00078869  00000-0  56378-3 0  9999,2 53438  53.2188 112.4758 0001013  95.8771 336.1967 15.73088573  1308,6728.2130000000025,91.54,350.759,349.396,0.0
53438.0,STARLINK-4526,PAYLOAD,2022-09-06 20:00:01,15.73158008,9.81e-05,53.2184,111.2406,85.2203,323.4845,0.00016145,0.00022057,0.0,0 STARLINK-4526,1 53438U 22097BC  22249.83334491  .00022057  00000-0  16145-3 0  9993,2 53438  53.2184 111.2406 0000981  85.2203 323.4845 15.73158008  4776,6728.015,91.536,350.54,349.22,0.0
53438.0,STARLINK-4526,PAYLOAD,2022-09-06 22:00:00,15.73145675,0.0001001,53.2178,110.8287,80.3372,80.5848,0.0002925,0.00040533,0.0,0 STARLINK-4526,1 53438U 22097BC  22249.91667824  .00040533  00000-0  29250-3 0  9991,2 53438  53.2178 110.8287 0001001  80.3372  80.5848 15.73145675  1304,6728.05,91.536,350.589,349.242,0.0
53438.0,STARLINK-4526,PAYLOAD,2022-09-07 14:00:01,15.73233935,9.54e-05,53.2177,107.5281,92.2155,246.5212,0.0002779,0.00038617,0.0,0 STARLINK-4526,1 53438U 22097BC  22250.58334491  .00038617  00000-0  27790-3 0  9994,2 53438  53.2177 107.5281 0000954  92.2155 246.5212 15.73233935  4890,6727.7980000000025,91.531,350.305,349.022,0.0
53438.0,STARLINK-4526,PAYLOAD,2022-09-07 22:00:00,15.73224577,0.0001113,53.2173,105.8792,79.2592,348.4744,0.00015085,0.00020625,0.0,0 STARLINK-4526,1 53438U 22097BC  22250.91667824  .00020625  00000-0  15085-3 0  9994,2 53438  53.2173 105.8792 0001113  79.2592 348.4744 15.73224577  1309,6727.825,91.532,350.439,348.941,0.0
53438.0,STARLINK-4526,PAYLOAD,2022-09-08 06:00:00,15.73259414,0.0001184,53.2171,104.2303,82.1393,74.5221,-0.0005041,-0.00070951,0.0,0 STARLINK-4526,1 53438U 22097BC  22251.25001157 -.00070951  00000-0 -50410-3 0  9993,2 53438  53.2171 104.2303 0001184  82.1393  74.5221 15.73259414  5004,6727.726,91.53,350.38699999999994,348.7940000000001,0.0
53438.0,STARLINK-4526,PAYLOAD,2022-09-08 14:00:01,15.73196544,0.0001268,53.2173,102.5795,92.4515,153.1547,0.00049697,0.00069696,0.0,0 STARLINK-4526,1 53438U 22097BC  22251.58334491  .00069696  00000-0  49697-3 0  9996,2 53438  53.2173 102.5795 0001268  92.4515 153.1547 15.73196544  1303,6727.905,91.533,350.62300000000016,348.917,0.0
53438.0,STARLINK-4526,PAYLOAD,2022-09-08 22:00:00,15.732533300000002,0.0001225,53.2173,100.9321,78.6271,255.9511,-0.00041868,-0.00059101,0.0,0 STARLINK-4526,1 53438U 22097BC  22251.91667824 -.00059101  00000-0 -41868-3 0  9996,2 53438  53.2173 100.9321 0001225  78.6271 255.9511 15.73253330  5109,6727.743,91.53,350.432,348.784,0.0
53438.0,STARLINK-4526,PAYLOAD,2022-09-09 14:00:01,15.732133,0.000118,53.2171,97.6311,90.1328,62.3413,0.00020488,0.00028246,0.0,0 STARLINK-4526,1 53438U 22097BC  22252.58334491  .00028246  00000-0  20488-3 0  9990,2 53438  53.2171  97.6311 0001180  90.1328  62.3413 15.73213300  1302,6727.857,91.532,350.516,348.92800000000005,0.0
53438.0,STARLINK-4526,PAYLOAD,2022-09-09 22:00:00,15.73186624,0.0001127,53.2166,95.9822,70.9434,170.5004,0.00033576,0.00046737,0.0,0 STARLINK-4526,1 53438U 22097BC  22252.91667824  .00046737  00000-0  33576-3 0  9993,2 53438  53.2166  95.9822 0001127  70.9434 170.5004 15.73186624  1305,6727.933000000001,91.534,350.557,349.04,0.0
53438.0,STARLINK-4526,PAYLOAD,2022-09-10 06:00:02,15.73326594,0.0001104,53.2167,94.326,74.9731,255.4557,-0.0025473,-0.00345679,0.0,0 STARLINK-4526,1 53438U 22097BC  22253.25002315 -.00345679  00000-0 -25473-2 0  9994,2 53438  53.2167  94.3260 0001104  74.9731 255.4557 15.73326594  5317,6727.534000000002,91.526,350.142,348.657,0.0
53438.0,STARLINK-4526,PAYLOAD,2022-09-10 14:00:01,15.73184069,0.0001123,53.2167,92.6823,86.3562,332.905,0.000324,0.00045064,0.0,0 STARLINK-4526,1 53438U 22097BC  22253.58334491  .00045064  00000-0  32400-3 0  9995,2 53438  53.2167  92.6823 0001123  86.3562 332.9050 15.73184069  5377,6727.941,91.534,350.561,349.05,0.0
53438.0,STARLINK-4526,PAYLOAD,2022-09-10 20:00:01,15.732274599999998,0.0001042,53.2166,91.4468,72.5084,323.4435,-0.00051153,-0.00071881,0.0,0 STARLINK-4526,1 53438U 22097BC  22253.83334491 -.00071881  00000-0 -51153-3 0  9997,2 53438  53.2166  91.4468 0001042  72.5084 323.4435 15.73227460  5403,6727.816999999999,91.532,350.3830000000001,348.981,0.0
53438.0,STARLINK-4526,PAYLOAD,2022-09-10 22:00:00,15.73199355,9.97e-05,53.2167,91.0347,66.6595,81.5505,6.233100000000001e-05,8.136e-05,0.0,0 STARLINK-4526,1 53438U 22097BC  22253.91667824  .00008136  00000-0  62331-4 0  9997,2 53438  53.2167  91.0347 0000997  66.6595  81.5505 15.73199355  1301,6727.897,91.533,350.43300000000005,349.091,0.0
53438.0,STARLINK-4526,PAYLOAD,2022-09-11 06:00:00,15.73224794,8.57e-05,53.2166,89.3837,69.3814,167.7562,9.2768e-05,0.00012433,0.0,0 STARLINK-4526,1 53438U 22097BC  22254.25001157  .00012433  00000-0  92768-4 0  9998,2 53438  53.2166  89.3837 0000857  69.3814 167.7562 15.73224794  5471,6727.824000000001,91.532,350.266,349.11300000000006,0.0
53438.0,STARLINK-4526,PAYLOAD,2022-09-11 14:00:01,15.7325035,9.36e-05,53.2166,87.7336,78.0264,248.0725,-0.00020753,-0.00029704,0.0,0 STARLINK-4526,1 53438U 22097BC  22254.58334491 -.00029704  00000-0 -20753-3 0  9999,2 53438  53.2166  87.7336 0000936  78.0264 248.0725 15.73250350  1300,6727.752,91.53,350.246,348.987,0.0
53438.0,STARLINK-4526,PAYLOAD,2022-09-11 22:00:00,15.73216097,0.0001032,53.2163,86.0839,62.7092,352.3705,-0.0001740999999999,-0.00024997,0.0,0 STARLINK-4526,1 53438U 22097BC  22254.91667824 -.00024997  00000-0 -17410-3 0  9990,2 53438  53.2163  86.0839 0001032  62.7092 352.3705 15.73216097  5585,6727.849,91.532,350.409,349.02,0.0
53438.0,STARLINK-4526,PAYLOAD,2022-09-12 12:00:00,15.73187026,0.0001020999999999,53.2163,83.1967,76.9328,43.78,0.00047943,0.00067166,0.0,0 STARLINK-4526,1 53438U 22097BC  22255.50001157  .00067166  00000-0  47943-3 0  9994,2 53438  53.2163  83.1967 0001021  76.9328  43.7800 15.73187026  5678,6727.932,91.534,350.4840000000001,349.11,0.0
53438.0,STARLINK-4526,PAYLOAD,2022-09-12 14:00:01,15.73229628,0.0001027,53.2165,82.7848,75.8898,157.0442,-5.6242e-05,-8.515e-05,0.0,0 STARLINK-4526,1 53438U 22097BC  22255.58334491 -.00008515  00000-0 -56242-4 0  9990,2 53438  53.2165  82.7848 0001027  75.8898 157.0442 15.73229628  1301,6727.811,91.531,350.367,348.985,0.0
53438.0,STARLINK-4526,PAYLOAD,2022-09-12 22:00:00,15.73166625,0.0001349,53.2166,81.1346,60.7219,261.1881,0.00074146,0.00104593,0.0,0 STARLINK-4526,1 53438U 22097BC  22255.91667824  .00104593  00000-0  74146-3 0  9999,2 53438  53.2166  81.1346 0001349  60.7219 261.1881 15.73166625  5737,6727.99,91.535,350.76300000000015,348.9480000000001,0.0
53438.0,STARLINK-4526,PAYLOAD,2022-09-13 06:00:00,15.73239895,0.0001229,53.2167,79.4861,67.6291,343.1474,-0.00031614,-0.00044827,0.0,0 STARLINK-4526,1 53438U 22097BC  22256.25001157 -.00044827  00000-0 -31614-3 0  9996,2 53438  53.2167  79.4861 0001229  67.6291 343.1474 15.73239895  5787,6727.781,91.531,350.473,348.82,0.0
53438.0,STARLINK-4526,PAYLOAD,2022-09-13 14:00:01,15.7324228,0.0001291,53.2166,77.8365,70.2143,69.5117,-0.00039987,-0.00056465,0.0,0 STARLINK-4526,1 53438U 22097BC  22256.58334491 -.00056465  00000-0 -39987-3 0  9994,2 53438  53.2166  77.8365 0001291  70.2143  69.5117 15.73242280  1301,6727.775,91.531,350.5080000000001,348.771,0.0
53438.0,STARLINK-4526,PAYLOAD,2022-09-13 20:00:01,15.73214782,0.0001361,53.2169,76.597,61.6941,54.7535,-0.00029386,-0.00041683,0.0,0 STARLINK-4526,1 53438U 22097BC  22256.83334491 -.00041683  00000-0 -29386-3 0  9990,2 53438  53.2169  76.5970 0001361  61.6941  54.7535 15.73214782  5883,6727.853,91.532,350.634,348.802,0.0
53438.0,STARLINK-4526,PAYLOAD,2022-09-13 22:00:00,15.732485999999998,0.00013,53.2168,76.1838,61.7349,166.9399,-0.0010547,-0.00146397,0.0,0 STARLINK-4526,1 53438U 22097BC  22256.91667824 -.00146397  00000-0 -10547-2 0  9994,2 53438  53.2168  76.1838 0001300  61.7349 166.9399 15.73248600  1300,6727.757,91.53,350.496,348.747,0.0
53438.0,STARLINK-4526,PAYLOAD,2022-09-14 06:00:00,15.73167829,0.0001197,53.2163,74.5375,64.2579,253.3112,-0.00022309,-0.00031767,0.0,0 STARLINK-4526,1 53438U 22097BC  22257.25001157 -.00031767  00000-0 -22309-3 0  9997,2 53438  53.2163  74.5375 0001197  64.2579 253.3112 15.73167829  5941,6727.986999999999,91.535,350.657,349.047,0.0
53438.0,STARLINK-4526,PAYLOAD,2022-09-14 14:00:01,15.7316421,0.0001121,53.2167,72.8883,61.7088,344.7204,0.00031646,0.00043957,0.0,0 STARLINK-4526,1 53438U 22097BC  22257.58334491  .00043957  00000-0  31646-3 0  9999,2 53438  53.2167  72.8883 0001121  61.7088 344.7204 15.73164210  1308,6727.996999999999,91.535,350.616,349.108,0.0
53438.0,STARLINK-4526,PAYLOAD,2022-09-14 20:00:01,15.73174764,0.0001268,53.2168,71.6528,51.9142,331.1906,0.00055699,0.00078195,0.0,0 STARLINK-4526,1 53438U 22097BC  22257.83334491  .00078195  00000-0  55699-3 0  9993,2 53438  53.2168  71.6528 0001268  51.9142 331.1906 15.73174764  6035,6727.967,91.535,350.685,348.97900000000016,0.0
53438.0,STARLINK-4526,PAYLOAD,2022-09-14 22:00:00,15.731654,0.0001264,53.2169,71.2406,47.8921,87.4433,0.00088334,0.00125025,0.0,0 STARLINK-4526,1 53438U 22097BC  22257.91667824  .00125025  00000-0  88334-3 0  9998,2 53438  53.2169  71.2406 0001264  47.8921  87.4433 15.73165400  1300,6727.994000000002,91.535,350.709,349.0080000000001,0.0
53438.0,STARLINK-4526,PAYLOAD,2022-09-15 14:00:01,15.73233695,0.0001541,53.2169,67.9401,61.2836,251.9641,-0.00027928,-0.00039688,0.0,0 STARLINK-4526,1 53438U 22097BC  22258.58334491 -.00039688  00000-0 -27928-3 0  9996,2 53438  53.2169  67.9401 0001541  61.2836 251.9641 15.73233695  1301,6727.799,91.531,350.701,348.62699999999984,0.0
